[Satellite]
VERSION=1.1
NAME=AMC-18
NICKNAME=AMC-18
TLE1=1 29644U 06054B   17186.28491219 -.00000093  00000-0  00000-0 0  9992
TLE2=2 29644   0.0175 318.1725 0002882 138.4213 184.4750  1.00271884 38819
